{
 "type": "FeatureCollection",
 "name": "example_plots",
 "crs": {
  "type": "name",
  "properties": {
   "name": "urn:ogc:def:crs:OGC:1.3:CRS84"
  }
 },
 "features": [
  {
   "type": "Feature",
   "properties": {
    "name": "cleared_after_2020"
   },
   "geometry": {
    "type": "Polygon",
    "coordinates": [
     [
      [
       -71.737049,
       3.281813
      ],
      [
       -71.739672,
       3.281079
      ],
      [
       -71.739102,
       3.280445
      ],
      [
       -71.736736,
       3.280648
      ],
      [
       -71.736818,
       3.280982
      ],
      [
       -71.737049,
       3.281813
      ]
     ]
    ]
   }
  },
  {
   "type": "Feature",
   "properties": {
    "name": "standing_forest"
   },
   "geometry": {
    "type": "Polygon",
    "coordinates": [
     [
      [
       -71.800406,
       3.256257
      ],
      [
       -71.80081,
       3.255941
      ],
      [
       -71.798863,
       3.254196
      ],
      [
       -71.798271,
       3.255029
      ],
      [
       -71.797845,
       3.255574
      ],
      [
       -71.800406,
       3.256257
      ]
     ]
    ]
   }
  },
  {
   "type": "Feature",
   "properties": {
    "name": "partly_cleared"
   },
   "geometry": {
    "type": "Polygon",
    "coordinates": [
     [
      [
       -71.79486,
       3.298292
      ],
      [
       -71.797111,
       3.297309
      ],
      [
       -71.796559,
       3.295928
      ],
      [
       -71.796118,
       3.296067
      ],
      [
       -71.794627,
       3.296865
      ],
      [
       -71.79486,
       3.298292
      ]
     ]
    ]
   }
  },
  {
   "type": "Feature",
   "properties": {
    "name": "old_pasture"
   },
   "geometry": {
    "type": "Polygon",
    "coordinates": [
     [
      [
       -71.731201,
       3.299026
      ],
      [
       -71.732359,
       3.297285
      ],
      [
       -71.732277,
       3.296762
      ],
      [
       -71.731871,
       3.296434
      ],
      [
       -71.729905,
       3.29702
      ],
      [
       -71.731201,
       3.299026
      ]
     ]
    ]
   }
  }
 ]
}